[
    {
        "Altitude(m)": 607895.8138632452,
        "Argument of Periapsis(deg)": 0.0,
        "Eccentricity": 0.0,
        "Inclination(deg)": 60.0,
        "Latitude(deg)": 40.99833005347077,
        "Longitude(deg)": -164.91126031793462,
        "Mean Anomaly(deg)": 130.90909999999997,
        "RAAN(deg)": 145.0,
        "Satellite Name": "Test1 646",
        "Satellite Number": 646,
        "Semi-Major Axis(m)": 6980739.136638005,
        "Time(s)": 0
    },
    {
        "Altitude(m)": 607795.1263674909,
        "Argument of Periapsis(deg)": 0.00010418945913296404,
        "Eccentricity": 0.0,
        "Inclination(deg)": 60.0,
        "Latitude(deg)": 40.53065336681795,
        "Longitude(deg)": -164.4146680969574,
        "Mean Anomaly(deg)": 131.5292061454618,
        "RAAN(deg)": 144.99957995086027,
        "Satellite Name": "Test1 646",
        "Satellite Number": 646,
        "Semi-Major Axis(m)": 6980739.136638005,
        "Time(s)": 10
    }
]